[{"OBJECT_NAME":"STARLINK-3648","OBJECT_ID":"2022-025AP","EPOCH":"2026-03-09T07:05:03.126048","MEAN_MOTION":15.08832769,"ECCENTRICITY":0.00016727,"INCLINATION":53.2203,"RA_OF_ASC_NODE":40.8944,"ARG_OF_PERICENTER":94.3239,"MEAN_ANOMALY":265.7944,"EPHEMERIS_TYPE":0,"CLASSIFICATION_TYPE":"U","NORAD_CAT_ID":51993,"ELEMENT_SET_NO":999,"REV_AT_EPOCH":22100,"BSTAR":-3.056194e-5,"MEAN_MOTION_DOT":-7.74e-6,"MEAN_MOTION_DDOT":0},{"OBJECT_NAME":"COSMOS 1275 DEB","OBJECT_ID":"1981-053RH","EPOCH":"2026-03-08T19:02:02.535360","MEAN_MOTION":15.08606043,"ECCENTRICITY":0.00097404,"INCLINATION":83.3308,"RA_OF_ASC_NODE":196.5935,"ARG_OF_PERICENTER":282.896,"MEAN_ANOMALY":77.1182,"EPHEMERIS_TYPE":0,"CLASSIFICATION_TYPE":"U","NORAD_CAT_ID":42145,"ELEMENT_SET_NO":999,"REV_AT_EPOCH":64889,"BSTAR":0.0090120528,"MEAN_MOTION_DOT":0.00143721,"MEAN_MOTION_DDOT":0}]
